{
  "restaurants": [
    {
      "id": 1,
      "name": "Wildwood Rushden Lakes",
      "address": "Unit R1 Boardwalk, Rushden Lakes",
      "city": "Rushden",
      "postcode": "NN10 6FH",
      "image": "/png/location_1.png",
      "page": 1
    },
    {
      "id": 2,
      "name": "Wildwood Birmingham",
      "address": "Unit 5 The Mailbox, Birmingham",
      "city": "Birmingham",
      "postcode": "B1 1RF",
      "image": "/png/location_1.png",
      "page": 1
    },
    {
      "id": 3,
      "name": "Wildwood Canterbury",
      "address": "7-8 The Parade, Canterbury",
      "city": "Canterbury",
      "postcode": "CT1 2JA",
      "image": "/png/location_3.png",
      "page": 1
    },
    {
      "id": 4,
      "name": "Wildwood Chelmsford",
      "address": "Bond Street, Chelmsford",
      "city": "Chelmsford",
      "postcode": "CM1 1GD",
      "image": "/png/location_1.png",
      "page": 1
    },
    {
      "id": 5,
      "name": "Wildwood Chichester",
      "address": "East Street, Chichester",
      "city": "Chichester",
      "postcode": "PO19 1HX",
      "image": "/png/location_2.png",
      "page": 1
    },
    {
      "id": 6,
      "name": "Wildwood Colchester",
      "address": "High Street, Colchester",
      "city": "Colchester",
      "postcode": "CO1 1UG",
      "image": "/png/location_1.png",
      "page": 1
    },
    {
      "id": 7,
      "name": "Wildwood Derby",
      "address": "Intu Derby, Derby",
      "city": "Derby",
      "postcode": "DE1 2PQ",
      "image": "/png/location_1.png",
      "page": 2
    },
    {
      "id": 8,
      "name": "Wildwood Exeter",
      "address": "Princesshay, Exeter",
      "city": "Exeter",
      "postcode": "EX1 1GE",
      "image": "/png/location_1.png",
      "page": 2
    },
    {
      "id": 9,
      "name": "Wildwood Gloucester",
      "address": "Gloucester Quays, Gloucester",
      "city": "Gloucester",
      "postcode": "GL1 5SH",
      "image": "/png/location_1.png",
      "page": 2
    },
    {
      "id": 10,
      "name": "Wildwood Harrogate",
      "address": "Parliament Street, Harrogate",
      "city": "Harrogate",
      "postcode": "HG1 2QU",
      "image": "/png/location_1.png",
      "page": 2
    },
    {
      "id": 11,
      "name": "Wildwood Hull",
      "address": "St Stephen's Shopping Centre, Hull",
      "city": "Hull",
      "postcode": "HU1 3RA",
      "image": "/png/location_1.png",
      "page": 2
    },
    {
      "id": 12,
      "name": "Wildwood Ipswich",
      "address": "Buttermarket Shopping Centre, Ipswich",
      "city": "Ipswich",
      "postcode": "IP1 1DT",
      "image": "/png/location_1.png",
      "page": 2
    },
    {
      "id": 13,
      "name": "Wildwood Leeds",
      "address": "Trinity Leeds, Leeds",
      "city": "Leeds",
      "postcode": "LS1 5AR",
      "image": "/png/location_1.png",
      "page": 3
    },
    {
      "id": 14,
      "name": "Wildwood Leicester",
      "address": "Highcross Shopping Centre, Leicester",
      "city": "Leicester",
      "postcode": "LE1 4SD",
      "image": "/png/location_1.png",
      "page": 3
    },
    {
      "id": 15,
      "name": "Wildwood Lincoln",
      "address": "Cornhill Quarter, Lincoln",
      "city": "Lincoln",
      "postcode": "LN5 7HY",
      "image": "/png/location_1.png",
      "page": 3
    },
    {
      "id": 16,
      "name": "Wildwood Manchester",
      "address": "Arndale Centre, Manchester",
      "city": "Manchester",
      "postcode": "M4 3AQ",
      "image": "/png/location_1.png",
      "page": 3
    },
    {
      "id": 17,
      "name": "Wildwood Newcastle",
      "address": "Grainger Street, Newcastle",
      "city": "Newcastle",
      "postcode": "NE1 5JQ",
      "image": "/png/location_1.png",
      "page": 3
    },
    {
      "id": 18,
      "name": "Wildwood Norwich",
      "address": "Chapelfield Shopping Centre, Norwich",
      "city": "Norwich",
      "postcode": "NR2 1SZ",
      "image": "/png/location_1.png",
      "page": 3
    }
  ]
}
